NORAD_CAT_ID,OBJECT_NAME,OBJECT_TYPE,EPOCH,MEAN_MOTION,ECCENTRICITY,INCLINATION,RA_OF_ASC_NODE,ARG_OF_PERICENTER,MEAN_ANOMALY,BSTAR,MEAN_MOTION_DOT,MEAN_MOTION_DDOT,TLE_LINE0,TLE_LINE1,TLE_LINE2,SEMIMAJOR_AXIS,PERIOD,APOGEE,PERIGEE,DECAYED
52671.0,STARLINK-4071,PAYLOAD,2022-08-25 22:00:00,15.08836384,0.0002460999999999,53.2191,193.1099,54.33,59.6002,0.00024159,3.558e-05,0.0,0 STARLINK-4071,1 52671U 22053R   22237.91667824  .00003558  00000-0  24159-3 0  9997,2 52671  53.2191 193.1099 0002461  54.3300  59.6002 15.08836384  1306,6917.891,95.438,541.4590000000002,538.054,0.0
52671.0,STARLINK-4071,PAYLOAD,2022-08-26 06:00:00,15.08821171,0.0002627,53.2191,191.6154,50.3061,75.22,0.0015069,0.00023764,0.0,0 STARLINK-4071,1 52671U 22053R   22238.25001157  .00023764  00000-0  15069-2 0  9996,2 52671  53.2191 191.6154 0002627  50.3061  75.2200 15.08821171 15650,6917.938,95.439,541.62,537.986,0.0
52671.0,STARLINK-4071,PAYLOAD,2022-08-26 14:00:01,15.08847634,0.0002504,53.2192,190.1178,52.9706,84.2016,-0.0012439999999999,-0.00020037,0.0,0 STARLINK-4071,1 52671U 22053R   22238.58335648 -.00020037  00000-0 -12440-2 0  9999,2 52671  53.2192 190.1178 0002504  52.9706  84.2016 15.08847634  1303,6917.857,95.437,541.4540000000002,537.99,0.0
52671.0,STARLINK-4071,PAYLOAD,2022-08-26 22:00:00,15.08850858,0.0002493,53.2196,188.6214,56.3986,92.3017,-0.0001481,-2.646e-05,0.0,0 STARLINK-4071,1 52671U 22053R   22238.91667824 -.00002646  00000-0 -14810-3 0  9990,2 52671  53.2196 188.6214 0002493  56.3986  92.3017 15.08850858  1308,6917.847,95.437,541.437,537.988,0.0
52671.0,STARLINK-4071,PAYLOAD,2022-08-27 14:00:01,15.08851578,0.000243,53.2194,185.6291,54.3504,117.5619,-0.0031796999999999,-0.00050557,0.0,0 STARLINK-4071,1 52671U 22053R   22239.58334491 -.00050557  00000-0 -31797-2 0  9991,2 52671  53.2194 185.6291 0002430  54.3504 117.5619 15.08851578  1301,6917.845,95.437,541.391,538.029,0.0
52671.0,STARLINK-4071,PAYLOAD,2022-08-27 22:00:00,15.08836017,0.0002400999999999,53.2197,184.1329,56.9913,126.5037,-0.00048083,-7.932e-05,0.0,0 STARLINK-4071,1 52671U 22053R   22239.91667824 -.00007932  00000-0 -48083-3 0  9993,2 52671  53.2197 184.1329 0002401  56.9913 126.5037 15.08836017  1305,6917.893,95.438,541.419,538.097,0.0
52671.0,STARLINK-4071,PAYLOAD,2022-08-28 06:00:00,15.08811652,0.0002549999999999,53.2194,182.6383,52.6171,142.472,0.0026166,0.0004157,0.0,0 STARLINK-4071,1 52671U 22053R   22240.25001157  .00041570  00000-0  26166-2 0  9994,2 52671  53.2194 182.6383 0002550  52.6171 142.4720 15.08811652 15959,6917.967,95.439,541.596,538.068,0.0
52671.0,STARLINK-4071,PAYLOAD,2022-08-28 14:00:01,15.088378400000002,0.0002415,53.2192,181.1405,56.3451,150.325,-0.00016432,-2.903e-05,0.0,0 STARLINK-4071,1 52671U 22053R   22240.58334491 -.00002903  00000-0 -16432-3 0  9995,2 52671  53.2192 181.1405 0002415  56.3451 150.3250 15.08837840  1305,6917.887,95.438,541.423,538.081,0.0
52671.0,STARLINK-4071,PAYLOAD,2022-08-28 22:00:00,15.08853614,0.0002445,53.2194,179.6446,59.1941,159.0605,-0.00074077,-0.00012063,0.0,0 STARLINK-4071,1 52671U 22053R   22240.91667824 -.00012063  00000-0 -74077-3 0  9998,2 52671  53.2194 179.6446 0002445  59.1941 159.0605 15.08853614  1309,6917.839,95.437,541.395,538.012,0.0
52671.0,STARLINK-4071,PAYLOAD,2022-08-29 14:00:01,15.08819844,0.0002374,53.219,176.6519,56.9622,184.4959,0.00027982,4.166e-05,0.0,0 STARLINK-4071,1 52671U 22053R   22241.58334491  .00004166  00000-0  27982-3 0  9999,2 52671  53.2190 176.6519 0002374  56.9622 184.4959 15.08819844  1306,6917.941999999999,95.439,541.4490000000002,538.165,0.0
52671.0,STARLINK-4071,PAYLOAD,2022-08-29 22:00:00,15.08842756,0.0002435,53.2189,175.15599999999995,59.4253,193.6021,-0.00095602,-0.00015473,0.0,0 STARLINK-4071,1 52671U 22053R   22241.91667824 -.00015473  00000-0 -95602-3 0  9994,2 52671  53.2189 175.1560 0002435  59.4253 193.6021 15.08842756  1300,6917.871999999999,95.437,541.4209999999998,538.052,0.0
52671.0,STARLINK-4071,PAYLOAD,2022-08-30 06:00:00,15.08814105,0.0002566999999999,53.2188,173.6612,54.8271,209.7993,0.0032413,0.0005164,0.0,0 STARLINK-4071,1 52671U 22053R   22242.25001157  .00051640  00000-0  32413-2 0  9997,2 52671  53.2188 173.6612 0002567  54.8271 209.7993 15.08814105 16259,6917.96,95.439,541.6,538.049,0.0
52671.0,STARLINK-4071,PAYLOAD,2022-08-30 14:00:01,15.0884537,0.0002411,53.2188,172.1632,58.08600000000001,218.1253,-0.0013619,-0.00021902,0.0,0 STARLINK-4071,1 52671U 22053R   22242.58334491 -.00021902  00000-0 -13619-2 0  9990,2 52671  53.2188 172.1632 0002411  58.0860 218.1253 15.08845370  1304,6917.864000000001,95.437,541.3969999999998,538.061,0.0
52671.0,STARLINK-4071,PAYLOAD,2022-08-30 22:00:00,15.08841114,0.0002431,53.2188,170.6673,59.1906,228.6099,-0.0014059,-0.00022595,0.0,0 STARLINK-4071,1 52671U 22053R   22242.91667824 -.00022595  00000-0 -14059-2 0  9994,2 52671  53.2188 170.6673 0002431  59.1906 228.6099 15.08841114  1303,6917.877,95.437,541.424,538.06,0.0
52671.0,STARLINK-4071,PAYLOAD,2022-08-31 14:00:01,15.08821581,0.0002446,53.2189,167.6743,58.7799,252.1923,0.0015555999999999,0.00024544,0.0,0 STARLINK-4071,1 52671U 22053R   22243.58334491  .00024544  00000-0  15556-2 0  9996,2 52671  53.2189 167.6743 0002446  58.7799 252.1923 15.08821581  1303,6917.937,95.439,541.494,538.11,0.0
52671.0,STARLINK-4071,PAYLOAD,2022-08-31 22:00:00,15.08858218,0.0002536,53.2189,166.1785,59.7189,262.8352,-0.0011995999999999,-0.0001934,0.0,0 STARLINK-4071,1 52671U 22053R   22243.91667824 -.00019340  00000-0 -11996-2 0  9996,2 52671  53.2189 166.1785 0002536  59.7189 262.8352 15.08858218  1308,6917.825,95.436,541.444,537.935,0.0
52671.0,STARLINK-4071,PAYLOAD,2022-09-01 14:00:01,15.08818761,0.000244,53.2189,163.1853,59.6631,286.1774,0.001356,0.00021346,0.0,0 STARLINK-4071,1 52671U 22053R   22244.58335648  .00021346  00000-0  13560-2 0  9992,2 52671  53.2189 163.1853 0002440  59.6631 286.1774 15.08818761 16601,6917.945,95.439,541.498,538.122,0.0
52671.0,STARLINK-4071,PAYLOAD,2022-09-01 22:00:00,15.08852681,0.0002512,53.2191,161.6897,59.724,297.63,-0.0013792,-0.0002218,0.0,0 STARLINK-4071,1 52671U 22053R   22244.91667824 -.00022180  00000-0 -13792-2 0  9999,2 52671  53.2191 161.6897 0002512  59.7240 297.6300 15.08852681  1304,6917.842,95.437,541.444,537.969,0.0
52671.0,STARLINK-4071,PAYLOAD,2022-09-02 14:00:01,15.08816787,0.0002395,53.219,158.6964,60.4372,320.1232,0.00092283,0.0001441999999999,0.0,0 STARLINK-4071,1 52671U 22053R   22245.58334491  .00014420  00000-0  92283-3 0  9993,2 52671  53.2190 158.6964 0002395  60.4372 320.1232 15.08816787 16767,6917.951,95.439,541.4730000000002,538.159,0.0
52671.0,STARLINK-4071,PAYLOAD,2022-09-02 22:00:01,15.08844039,0.0002467,53.2191,157.2009,59.7803,332.4122,-0.0015464,-0.00024819,0.0,0 STARLINK-4071,1 52671U 22053R   22245.91668981 -.00024819  00000-0 -15464-2 0  9994,2 52671  53.2191 157.2009 0002467  59.7803 332.4122 15.08844039  1302,6917.868,95.437,541.44,538.026,0.0
52671.0,STARLINK-4071,PAYLOAD,2022-09-03 14:00:01,15.08818743,0.0002369,53.2189,154.2075,62.4448,352.8712,0.0029443,0.00046856,0.0,0 STARLINK-4071,1 52671U 22053R   22246.58334491  .00046856  00000-0  29443-2 0  9999,2 52671  53.2189 154.2075 0002369  62.4448 352.8712 15.08818743  1300,6917.945,95.439,541.4490000000002,538.172,0.0
52671.0,STARLINK-4071,PAYLOAD,2022-09-03 22:00:00,15.08866134,0.0002465,53.219,152.7123,61.798,5.1055,-0.0015024,-0.00024138,0.0,0 STARLINK-4071,1 52671U 22053R   22246.91667824 -.00024138  00000-0 -15024-2 0  9996,2 52671  53.2190 152.7123 0002465  61.7980   5.1055 15.08866134  1304,6917.801,95.436,541.371,537.96,0.0
52671.0,STARLINK-4071,PAYLOAD,2022-09-04 14:00:01,15.08833482,0.000225,53.2188,149.7185,63.3734,26.851,0.0024364,0.00038694,0.0,0 STARLINK-4071,1 52671U 22053R   22247.58335648  .00038694  00000-0  24364-2 0  9993,2 52671  53.2188 149.7185 0002250  63.3734  26.8510 15.08833482  1308,6917.9,95.438,541.322,538.2090000000002,0.0
52671.0,STARLINK-4071,PAYLOAD,2022-09-04 20:00:01,15.08877321,0.0002253,53.219,148.597,63.4214,305.4349,-0.0033582,-0.00053395,0.0,0 STARLINK-4071,1 52671U 22053R   22247.83334491 -.00053395  00000-0 -33582-2 0  9995,2 52671  53.2190 148.5970 0002253  63.4214 305.4349 15.08877321  1303,6917.766,95.435,541.19,538.073,0.0
52671.0,STARLINK-4071,PAYLOAD,2022-09-05 06:00:00,15.08855244,0.0002262,53.2184,146.7277,57.2434,56.1288,-9.3193e-05,-1.772e-05,0.0,0 STARLINK-4071,1 52671U 22053R   22248.25001157 -.00001772  00000-0 -93193-4 0  9990,2 52671  53.2184 146.7277 0002262  57.2434  56.1288 15.08855244 17164,6917.834,95.437,541.264,538.134,0.0
52671.0,STARLINK-4071,PAYLOAD,2022-09-05 14:00:01,15.08823168,0.0002037,53.2185,145.2298,62.6687,62.3201,0.0012204,0.00019179,0.0,0 STARLINK-4071,1 52671U 22053R   22248.58334491  .00019179  00000-0  12204-2 0  9996,2 52671  53.2185 145.2298 0002037  62.6687  62.3201 15.08823168  1305,6917.932,95.439,541.206,538.388,0.0
52671.0,STARLINK-4071,PAYLOAD,2022-09-05 20:00:01,15.08855287,0.0002034,53.2188,144.1085,61.4955,342.1726,-0.0042725,-0.00067677,0.0,0 STARLINK-4071,1 52671U 22053R   22248.83334491 -.00067677  00000-0 -42725-2 0  9993,2 52671  53.2188 144.1085 0002034  61.4955 342.1726 15.08855287 17251,6917.834,95.437,541.106,538.2919999999998,0.0
52671.0,STARLINK-4071,PAYLOAD,2022-09-05 22:00:00,15.08842427,0.0002056,53.2187,143.7349,59.4524,77.1178,-0.0040763,-0.00064587,0.0,0 STARLINK-4071,1 52671U 22053R   22248.91667824 -.00064587  00000-0 -40763-2 0  9998,2 52671  53.2187 143.7349 0002056  59.4524  77.1178 15.08842427  1308,6917.873000000001,95.437,541.16,538.316,0.0
52671.0,STARLINK-4071,PAYLOAD,2022-09-06 12:00:00,15.08789382,0.0001924,53.2187,141.1155,59.8668,6.936,0.0021203,0.00033571,0.0,0 STARLINK-4071,1 52671U 22053R   22249.50001157  .00033571  00000-0  21203-2 0  9990,2 52671  53.2187 141.1155 0001924  59.8668   6.9360 15.08789382 17356,6918.035,95.441,541.231,538.569,0.0
